start=new Date('2022-04-20T00:00:00.000Z').valueOf();
sats=[{"REV_AT_EPOCH":"370","INCLINATION":"53.2159","GP_ID":"201630403","RCS_SIZE":"LARGE","FILE":"3408368","EPHEMERIS_TYPE":"0","SITE":"AFETR","ECCENTRICITY":"0.00013030","TLE_LINE2":"2 52112  53.2159 348.7469 0001303 134.7205 184.8165 15.73135578  3706","ELEMENT_SET_NO":"999","NORAD_CAT_ID":"52112","MEAN_ELEMENT_THEORY":"SGP4","PERIOD":"91.537","MEAN_MOTION_DOT":"0.00097416","MEAN_MOTION_DDOT":"0.0000000000000","LAUNCH_DATE":"2022-03-19","MEAN_ANOMALY":"184.8165","MEAN_MOTION":"15.73135578","PERIAPSIS":"349.067","CLASSIFICATION_TYPE":"U","COUNTRY_CODE":"US","SEMIMAJOR_AXIS":"6728.079","DECAY_DATE":null,"APOAPSIS":"350.821","TIME_SYSTEM":"UTC","OBJECT_ID":"2022-029AA","CENTER_NAME":"EARTH","BSTAR":"0.00069239000000","EPOCH":"2022-04-19T14:00:01.000224","ARG_OF_PERICENTER":"134.7205","REF_FRAME":"TEME","OBJECT_NAME":"STARLINK-3734","RA_OF_ASC_NODE":"348.7469","TLE_LINE1":"1 52112U 22029AA  22109.58334491  .00097416  00000-0  69239-3 0  9996","OBJECT_TYPE":"PAYLOAD"},{"DECAY_DATE":null,"COUNTRY_CODE":"US","SEMIMAJOR_AXIS":"6727.641","CLASSIFICATION_TYPE":"U","PERIAPSIS":"348.747","MEAN_MOTION":"15.73289300","MEAN_ANOMALY":"184.0710","OBJECT_NAME":"STARLINK-3736","RA_OF_ASC_NODE":"347.5047","TLE_LINE1":"1 52113U 22029AB  22109.83334491 -.00146617  00000-0 -10545-2 0  9990","OBJECT_TYPE":"PAYLOAD","REF_FRAME":"TEME","ARG_OF_PERICENTER":"115.0215","BSTAR":"-0.00105450000000","EPOCH":"2022-04-19T20:00:01.000224","OBJECT_ID":"2022-029AB","CENTER_NAME":"EARTH","APOAPSIS":"350.264","TIME_SYSTEM":"UTC","TLE_LINE2":"2 52113  53.2157 347.5047 0001127 115.0215 184.0710 15.73289300  6222","ELEMENT_SET_NO":"999","NORAD_CAT_ID":"52113","ECCENTRICITY":"0.00011270","FILE":"3408485","EPHEMERIS_TYPE":"0","SITE":"AFETR","RCS_SIZE":"LARGE","GP_ID":"201633404","INCLINATION":"53.2157","REV_AT_EPOCH":"622","MEAN_MOTION_DDOT":"0.0000000000000","LAUNCH_DATE":"2022-03-19","MEAN_MOTION_DOT":"-0.00146617","PERIOD":"91.528","MEAN_ELEMENT_THEORY":"SGP4"},{"GP_ID":"201630660","INCLINATION":"53.2158","REV_AT_EPOCH":"370","ELEMENT_SET_NO":"999","TLE_LINE2":"2 52114  53.2158 348.7443 0001371 122.8393 197.8191 15.73184900  3706","NORAD_CAT_ID":"52114","ECCENTRICITY":"0.00013710","SITE":"AFETR","FILE":"3408368","EPHEMERIS_TYPE":"0","RCS_SIZE":"LARGE","MEAN_MOTION_DOT":"0.00037172","PERIOD":"91.534","MEAN_ELEMENT_THEORY":"SGP4","LAUNCH_DATE":"2022-03-19","MEAN_MOTION_DDOT":"0.0000000000000","PERIAPSIS":"348.881","MEAN_MOTION":"15.73184900","MEAN_ANOMALY":"197.8191","DECAY_DATE":null,"SEMIMAJOR_AXIS":"6727.938","COUNTRY_CODE":"US","CLASSIFICATION_TYPE":"U","EPOCH":"2022-04-19T14:00:01.000224","BSTAR":"0.00026827000000","CENTER_NAME":"EARTH","OBJECT_ID":"2022-029AC","APOAPSIS":"350.726","TIME_SYSTEM":"UTC","TLE_LINE1":"1 52114U 22029AC  22109.58334491  .00037172  00000-0  26827-3 0  9997","OBJECT_TYPE":"PAYLOAD","RA_OF_ASC_NODE":"348.7443","OBJECT_NAME":"STARLINK-3737","REF_FRAME":"TEME","ARG_OF_PERICENTER":"122.8393"},{"ECCENTRICITY":"0.00011950","TLE_LINE2":"2 52115  53.2157 347.5022 0001195 118.1402 182.0280 15.73231432  6227","NORAD_CAT_ID":"52115","ELEMENT_SET_NO":"999","RCS_SIZE":"LARGE","EPHEMERIS_TYPE":"0","FILE":"3408485","SITE":"AFETR","INCLINATION":"53.2157","GP_ID":"201633903","REV_AT_EPOCH":"622","MEAN_MOTION_DDOT":"0.0000000000000","LAUNCH_DATE":"2022-03-19","MEAN_MOTION_DOT":"-0.00011425","MEAN_ELEMENT_THEORY":"SGP4","PERIOD":"91.531","COUNTRY_CODE":"US","SEMIMAJOR_AXIS":"6727.806","DECAY_DATE":null,"CLASSIFICATION_TYPE":"U","PERIAPSIS":"348.867","MEAN_ANOMALY":"182.0280","MEAN_MOTION":"15.73231432","REF_FRAME":"TEME","OBJECT_NAME":"STARLINK-3685","TLE_LINE1":"1 52115U 22029AD  22109.83334491 -.00011425  00000-0 -76993-4 0  9991","OBJECT_TYPE":"PAYLOAD","RA_OF_ASC_NODE":"347.5022","ARG_OF_PERICENTER":"118.1402","BSTAR":"-0.00007699300000","EPOCH":"2022-04-19T20:00:01.000224","TIME_SYSTEM":"UTC","APOAPSIS":"350.475","OBJECT_ID":"2022-029AD","CENTER_NAME":"EARTH"},{"PERIOD":"91.531","MEAN_ELEMENT_THEORY":"SGP4","MEAN_MOTION_DOT":"-0.00059100","MEAN_MOTION_DDOT":"0.0000000000000","LAUNCH_DATE":"2022-03-19","REV_AT_EPOCH":"622","GP_ID":"201633431","INCLINATION":"53.2159","EPHEMERIS_TYPE":"0","FILE":"3408490","SITE":"AFETR","RCS_SIZE":"LARGE","ELEMENT_SET_NO":"999","TLE_LINE2":"2 52116  53.2159 347.5063 0001304 114.4925 184.0320 15.73232640  6225","NORAD_CAT_ID":"52116","ECCENTRICITY":"0.00013040","OBJECT_ID":"2022-029AE","CENTER_NAME":"EARTH","TIME_SYSTEM":"UTC","APOAPSIS":"350.544","BSTAR":"-0.00041904000000","EPOCH":"2022-04-19T20:00:01.000224","ARG_OF_PERICENTER":"114.4925","OBJECT_NAME":"STARLINK-3735","RA_OF_ASC_NODE":"347.5063","TLE_LINE1":"1 52116U 22029AE  22109.83334491 -.00059100  00000-0 -41904-3 0  9997","OBJECT_TYPE":"PAYLOAD","REF_FRAME":"TEME","MEAN_MOTION":"15.73232640","MEAN_ANOMALY":"184.0320","PERIAPSIS":"348.790","CLASSIFICATION_TYPE":"U","DECAY_DATE":null,"COUNTRY_CODE":"US","SEMIMAJOR_AXIS":"6727.802"},{"REF_FRAME":"TEME","TLE_LINE1":"1 52117U 22029AF  22109.83334491 -.00037956  00000-0 -26682-3 0  9999","OBJECT_TYPE":"PAYLOAD","RA_OF_ASC_NODE":"347.4999","OBJECT_NAME":"STARLINK-3738","ARG_OF_PERICENTER":"121.0883","EPOCH":"2022-04-19T20:00:01.000224","BSTAR":"-0.00026682000000","TIME_SYSTEM":"UTC","APOAPSIS":"350.450","CENTER_NAME":"EARTH","OBJECT_ID":"2022-029AF","SEMIMAJOR_AXIS":"6727.790","COUNTRY_CODE":"US","DECAY_DATE":null,"CLASSIFICATION_TYPE":"U","PERIAPSIS":"348.859","MEAN_ANOMALY":"180.2760","MEAN_MOTION":"15.73237020","LAUNCH_DATE":"2022-03-19","MEAN_MOTION_DDOT":"0.0000000000000","MEAN_MOTION_DOT":"-0.00037956","MEAN_ELEMENT_THEORY":"SGP4","PERIOD":"91.531","ECCENTRICITY":"0.00011820","ELEMENT_SET_NO":"999","TLE_LINE2":"2 52117  53.2158 347.4999 0001182 121.0883 180.2760 15.73237020  6237","NORAD_CAT_ID":"52117","RCS_SIZE":"LARGE","FILE":"3408490","SITE":"AFETR","EPHEMERIS_TYPE":"0","INCLINATION":"53.2158","GP_ID":"201633439","REV_AT_EPOCH":"623"},{"MEAN_MOTION_DOT":"0.00019389","MEAN_ELEMENT_THEORY":"SGP4","PERIOD":"91.533","MEAN_MOTION_DDOT":"0.0000000000000","LAUNCH_DATE":"2022-03-19","GP_ID":"201630313","INCLINATION":"53.2160","REV_AT_EPOCH":"370","ECCENTRICITY":"0.00013410","NORAD_CAT_ID":"52118","TLE_LINE2":"2 52118  53.2160 348.7397 0001341 124.3494 198.6405 15.73206171  3709","ELEMENT_SET_NO":"999","RCS_SIZE":"LARGE","FILE":"3408368","EPHEMERIS_TYPE":"0","SITE":"AFETR","BSTAR":"0.00014221000000","EPOCH":"2022-04-19T14:00:01.000224","TIME_SYSTEM":"UTC","APOAPSIS":"350.645","OBJECT_ID":"2022-029AG","CENTER_NAME":"EARTH","REF_FRAME":"TEME","OBJECT_NAME":"STARLINK-3743","TLE_LINE1":"1 52118U 22029AG  22109.58334491  .00019389  00000-0  14221-3 0  9996","OBJECT_TYPE":"PAYLOAD","RA_OF_ASC_NODE":"348.7397","ARG_OF_PERICENTER":"124.3494","PERIAPSIS":"348.840","MEAN_ANOMALY":"198.6405","MEAN_MOTION":"15.73206171","COUNTRY_CODE":"US","SEMIMAJOR_AXIS":"6727.878","DECAY_DATE":null,"CLASSIFICATION_TYPE":"U"},{"ARG_OF_PERICENTER":"122.5787","RA_OF_ASC_NODE":"348.7331","TLE_LINE1":"1 52119U 22029AH  22109.58334491  .00024143  00000-0  17593-3 0  9996","OBJECT_TYPE":"PAYLOAD","OBJECT_NAME":"STARLINK-3558","REF_FRAME":"TEME","CENTER_NAME":"EARTH","OBJECT_ID":"2022-029AH","APOAPSIS":"350.646","TIME_SYSTEM":"UTC","EPOCH":"2022-04-19T14:00:01.000224","BSTAR":"0.00017593000000","CLASSIFICATION_TYPE":"U","DECAY_DATE":null,"SEMIMAJOR_AXIS":"6727.890","COUNTRY_CODE":"US","MEAN_MOTION":"15.73201863","MEAN_ANOMALY":"203.2680","PERIAPSIS":"348.864","LAUNCH_DATE":"2022-03-19","MEAN_MOTION_DDOT":"0.0000000000000","PERIOD":"91.533","MEAN_ELEMENT_THEORY":"SGP4","MEAN_MOTION_DOT":"0.00024143","EPHEMERIS_TYPE":"0","FILE":"3408368","SITE":"AFETR","RCS_SIZE":"LARGE","NORAD_CAT_ID":"52119","TLE_LINE2":"2 52119  53.2159 348.7331 0001324 122.5787 203.2680 15.73201863  3703","ELEMENT_SET_NO":"999","ECCENTRICITY":"0.00013240","REV_AT_EPOCH":"370","INCLINATION":"53.2159","GP_ID":"201630494"},{"ARG_OF_PERICENTER":"121.3341","REF_FRAME":"TEME","OBJECT_NAME":"STARLINK-3534","TLE_LINE1":"1 52120U 22029AJ  22109.83334491 -.00042582  00000-0 -29987-3 0  9995","OBJECT_TYPE":"PAYLOAD","RA_OF_ASC_NODE":"347.5018","APOAPSIS":"350.414","TIME_SYSTEM":"UTC","OBJECT_ID":"2022-029AJ","CENTER_NAME":"EARTH","BSTAR":"-0.00029987000000","EPOCH":"2022-04-19T20:00:01.000224","CLASSIFICATION_TYPE":"U","COUNTRY_CODE":"US","SEMIMAJOR_AXIS":"6727.751","DECAY_DATE":null,"MEAN_ANOMALY":"179.4064","MEAN_MOTION":"15.73250412","PERIAPSIS":"348.819","MEAN_MOTION_DDOT":"0.0000000000000","LAUNCH_DATE":"2022-03-19","MEAN_ELEMENT_THEORY":"SGP4","PERIOD":"91.530","MEAN_MOTION_DOT":"-0.00042582","RCS_SIZE":"LARGE","SITE":"AFETR","FILE":"3408493","EPHEMERIS_TYPE":"0","ECCENTRICITY":"0.00011860","TLE_LINE2":"2 52120  53.2159 347.5018 0001186 121.3341 179.4064 15.73250412  6238","ELEMENT_SET_NO":"999","NORAD_CAT_ID":"52120","REV_AT_EPOCH":"623","INCLINATION":"53.2159","GP_ID":"201633472"},{"ARG_OF_PERICENTER":"124.2273","OBJECT_NAME":"STARLINK-3678","RA_OF_ASC_NODE":"347.0831","TLE_LINE1":"1 52121U 22029AK  22109.91667824 -.00108586  00000-0 -77814-3 0  9993","OBJECT_TYPE":"PAYLOAD","REF_FRAME":"TEME","OBJECT_ID":"2022-029AK","CENTER_NAME":"EARTH","TIME_SYSTEM":"UTC","APOAPSIS":"350.451","BSTAR":"-0.00077814000000","EPOCH":"2022-04-19T22:00:00.999936","CLASSIFICATION_TYPE":"U","DECAY_DATE":null,"COUNTRY_CODE":"US","SEMIMAJOR_AXIS":"6727.797","MEAN_MOTION":"15.73234459","MEAN_ANOMALY":"291.7137","PERIAPSIS":"348.873","MEAN_MOTION_DDOT":"0.0000000000000","LAUNCH_DATE":"2022-03-19","PERIOD":"91.531","MEAN_ELEMENT_THEORY":"SGP4","MEAN_MOTION_DOT":"-0.00108586","SITE":"AFETR","FILE":"3408794","EPHEMERIS_TYPE":"0","RCS_SIZE":"LARGE","TLE_LINE2":"2 52121  53.2157 347.0831 0001173 124.2273 291.7137 15.73234459  6251","ELEMENT_SET_NO":"999","NORAD_CAT_ID":"52121","ECCENTRICITY":"0.00011730","REV_AT_EPOCH":"625","GP_ID":"201640689","INCLINATION":"53.2157"}];
